[{"OBJECT_NAME":"FLOCK 4H-2","OBJECT_ID":"2025-276AR","EPOCH":"2026-03-09T18:25:48.775296","MEAN_MOTION":15.19528345,"ECCENTRICITY":8.129e-5,"INCLINATION":97.4241,"RA_OF_ASC_NODE":144.0888,"ARG_OF_PERICENTER":23.7853,"MEAN_ANOMALY":336.3419,"EPHEMERIS_TYPE":0,"CLASSIFICATION_TYPE":"U","NORAD_CAT_ID":66705,"ELEMENT_SET_NO":999,"REV_AT_EPOCH":1533,"BSTAR":0.00041565805,"MEAN_MOTION_DOT":8.768e-5,"MEAN_MOTION_DDOT":0},{"OBJECT_NAME":"ACCENTURE-1","OBJECT_ID":"2025-276DF","EPOCH":"2026-03-09T18:24:17.968032","MEAN_MOTION":15.19190222,"ECCENTRICITY":0.0001861,"INCLINATION":97.4232,"RA_OF_ASC_NODE":144.079,"ARG_OF_PERICENTER":116.0656,"MEAN_ANOMALY":244.077,"EPHEMERIS_TYPE":0,"CLASSIFICATION_TYPE":"U","NORAD_CAT_ID":66767,"ELEMENT_SET_NO":999,"REV_AT_EPOCH":1533,"BSTAR":0.00024177646,"MEAN_MOTION_DOT":5.02e-5,"MEAN_MOTION_DDOT":0}]
